#dP2020  5 12  0  0  0.00000000      96 __u+U ITR00 FIT  IAC
## 2105 172800.00000000   900.00000000 58981 0.0000000000000
+  117   C01C02C04C05C06C07C08C09C10C11C12C13C14C16C19C20C21
+        C22C23C24C25C26C27C28C29C30C32C33C34C35C36C37C38C43
+        C46E01E02E03E04E05E07E08E09E11E12E13E14E15E18E19E21
+        E24E25E26E27E30E31E33E36G01G02G03G04G05G06G07G08G09
+        G10G11G12G13G14G15G16G17G18G19G20G21G22G23G24G25G26
+        G27G28G29G30G31G32J01J03J07R01R02R03R04R05R07R08R09
+        R11R12R13R14R15R16R17R18R19R20R21R22R23R24R26  0  0
++        13 13 13 13  8  8  8  8  8  7  7  8  8  8  8  8  7
++         8  8  7  7  7  8  8  7  8  8  8  8  8  8  8  0  9
++         0  5  5  5  5  4  4  5  5  4  4  4  4  4  5  4  4
++         4  4  4  4  4  5  4  4  4  3  3  3  3  3  3  4  3
++         3  4  4  3  3  3  3  3  3  4  3  3  4  4  3  3  3
++         3  4  3  3  4  3  8  8 14  6  5  5  5  5  6  5  6
++         5  5  6  5  5  6  5  5  6  6  5  5  5  5  8  0  0
%c M  cc GPS ccc cccc cccc cccc cccc ccccc ccccc ccccc ccccc
%c cc cc ccc ccc cccc cccc cccc cccc ccccc ccccc ccccc ccccc
%f  0.0000000  0.000000000  0.00000000000  0.000000000000000
%f  0.0000000  0.000000000  0.00000000000  0.000000000000000
%i    0    0    0    0      0      0      0      0         0
%i    0    0    0    0      0      0      0      0         0
/* INFORMATION & ANALYSIS CENTER (IAC)            RAPID DATA
/* S/V CLOCKS ARE ALIGNED TO GNSS TIME                      
/* G:C1WC2W R:C1PC2P E:C1XC5X C:C2IC6I J:C1CC2S             
/* PCV:IGS14_2101 OL/AL:FES2004  NONE     YN ORB:CoN CLK:CoN
*  2020 05 12 13 45  0.00000000
PC01 -34358.335540  24391.485075   -769.467648   -520.783020
PC02   4386.962017  41926.730002   1314.943104    355.578788
PC04 -39626.932707  14408.302817   -147.902210   -221.396078
PC05  21904.139845  36035.829501    971.991842   -269.609621
PC06 -17244.153546  37956.418187   8097.472551    731.046067
PC07 -10841.954573  24624.024197 -32204.254809    -27.019576
PC08 -24506.046583  22472.032343  25821.315391   -248.696343
PC09  -7398.224175  40774.862126  -8557.000116    535.341467
PC10   4689.857187  32115.909276 -26532.304649   -937.639186
PC11  15169.541862   4291.585211  23084.796792   -360.037542
PC12   1823.145973  20669.122097  18679.027641    371.059393
PC13  -8862.973437  24804.972081  32950.829940    431.754227
PC14  19323.819072  14588.287990 -13787.857714    398.332580
PC16 -14401.461928  39474.911887   4629.705909   -647.247616
PC19 -18889.477931  -5235.430649  19903.028315    410.196606
PC20 -17109.840590 -21115.947611   6434.639821   -879.003974
PC21   4955.483622  24974.839464  11418.180583   -392.009210
PC22  -9773.976124  13988.675848  22086.058868   -808.996196
PC23  19954.547225 -10978.924470  16125.297587   -879.015238
PC24  19195.572045  12046.890111 -16302.559596   -824.825750
PC25  27913.038791   -241.365871    266.168883   -614.392077
PC26    652.004346  16132.982955 -22765.865891    677.785055
PC27   5862.162595 -24669.705394 -11645.807252    328.723820
PC28  17672.395512 -20797.090756   5834.954171    319.820729
PC29 -18900.762023   5493.175809 -19792.697199    227.467721
PC30  -9638.692987 -14012.910867 -22123.492714    315.784227
PC32  -5212.992078 -24961.608270 -11328.120446   -895.126077
PC33  18921.433180   5184.045336 -19823.776250   -839.676106
PC34   9923.643602  13691.121976  22195.805482   -712.502020
PC35 -17046.037627  21295.817592  -5984.866009   -848.378846
PC36 -27904.351912   -579.384720    -16.202284   -829.196130
PC37    532.434245 -16131.704440  22782.104335   -842.726712
PC38      0.000000      0.000000      0.000000 999999.999999
PC43  18942.733261  -5018.930611  19851.843943   -190.384632
PC46      0.000000      0.000000      0.000000 999999.999999
PE01  10091.052319 -13228.208603  24478.958921   -854.954805
PE02  -9990.723471  13287.816097 -24493.845443    132.814739
PE03  -8373.170807  24552.941428  14248.709108   -297.855647
PE04  -4617.630268 -29024.529255   3546.055062   -523.892822
PE05 -16587.307485   5634.096037  23867.999001   -380.876159
PE07  15047.280195  16430.533279 -19469.877987   -380.770666
PE08   4904.275209  28942.713015  -3734.154114   6179.356067
PE09 -15080.127463 -16264.371684  19621.006211   6063.668612
PE11 -18109.079400  -5674.834602 -22728.626469   2789.967456
PE12    920.026661 -18879.893523 -22770.906607   5809.136099
PE13  17876.697668   5768.588376  22877.003366    400.784839
PE14  10830.009371 -23870.657042   5276.437182  -1011.196323
PE15   -699.138280  18758.840233  22894.822675    867.326671
PE18 -19066.882924  16487.468304 -16829.252946  -1110.081926
PE19   9461.708309 -23122.397012 -15862.526619  -1981.268281
PE21  25169.652333    639.027687  15558.909844   -598.510608
PE24 -25582.723173 -14605.055619   2778.397289   5459.680587
PE25 -25227.320736   -736.348459 -15465.099869   -510.471198
PE26  26086.035977 -10692.679925   9018.649272   3198.035173
PE27  25751.264794  14368.380445  -2596.455039    221.635583
PE30  10764.326047  19686.278221 -19323.538637   3913.334276
PE31 -11203.045086 -19598.931213  19150.300801   -472.530783
PE33  18875.026384 -20734.488701  -9462.159122   -467.376523
PE36 -25976.318771  10627.184717  -9419.248836    561.150349
PG01   1580.976087 -15711.525507 -21517.519586   -378.452492
PG02 -20883.801820  14679.163808   7861.337640   -454.655116
PG03  -8508.556512 -20738.665158 -14382.072627   -173.368378
PG04   -786.819027 -24896.857087   9187.201119    -88.351851
PG05 -11163.423465  10630.791532  21502.323457    -12.532020
PG06 -25567.068765   6704.023549  -2789.793588   -270.157364
PG07 -17251.522630  -8444.771622  18847.479719   -279.414710
PG08   6367.588102 -25531.210920   2383.981423    -33.729110
PG09  -9338.246664 -17695.193115  17411.316715   -215.845056
PG10  22338.435220   9254.933306 -11167.428321   -338.672195
PG11   8322.010079 -22297.662852 -12590.085124   -279.431749
PG12   6271.711163  21015.720658 -15332.657959    118.789790
PG13 -13213.264396  21398.623313   8278.228876      9.391958
PG14  16126.184218  -9308.591923 -18520.363436    -13.495084
PG15  -3419.446695  26078.730755   1320.668692   -231.729380
PG16  10518.679227 -10304.003114  21884.057203   -157.299705
PG17 -14669.227898   -930.019732 -21700.051958    263.529765
PG18  16154.401584   8886.824581  19132.659937    187.251374
PG19 -16244.849831   7431.078290 -19950.512427   -159.804666
PG20  22064.299873  14994.500164    326.006900    527.706169
PG21  17757.611394   7272.716728  19030.213050     -2.374776
PG22   -272.455496 -18062.440722 -19290.527103   -782.539165
PG23 -10202.183209 -16986.159360  17898.768809   -114.808960
PG24  -2708.058052  17143.989261 -20208.866988    -12.931729
PG25  15426.228271  20531.792016  -7536.636116      3.480018
PG26  19076.392717  -1549.767419  18470.420157    204.998425
PG27  12278.688028 -19909.124191  12111.647695   -291.692144
PG28 -20879.408260 -10048.830710 -12264.278487    718.048854
PG29   5328.209468  20536.669743  15918.906873   -102.613432
PG30 -24358.118287   -957.507549  10837.138500   -218.479125
PG31  25841.811156  -7028.927927  -1293.341117    -41.889900
PG32  15500.663480   -439.771342 -21469.041471    278.958109
PJ01 -25220.532517  23978.228835  28855.431144   -305.824871
PJ03 -24467.863967  32245.495212  -7313.236082     -2.892061
PJ07 -25375.942009  33683.923647     10.351054     -0.021438
PR01  12095.993186   1699.562384 -22382.900836     61.416144
PR02   2458.137562 -18553.777965 -17257.664706    426.310069
PR03  -7408.096485 -24331.160669  -1546.056899     14.870459
PR04 -12870.539848 -16238.812123  14908.595428     48.855671
PR05 -11050.542258   1006.894340  22983.213849     50.326976
PR07   7614.164682  24344.758598   1093.620065    -36.432978
PR08  12881.918067  16295.918988 -14754.176172    -52.179691
PR09  -6400.661218  10005.245003 -22569.213770    132.169588
PR11  23196.678719   7976.862773  -6895.560053    -23.323352
PR12  23545.896253    -83.158735   9860.561986    130.147415
PR13  10278.053125  -8551.273168  21703.340624    -38.605622
PR14  -8995.499052 -11923.037884  20691.171861     51.129902
PR15 -22800.345942  -8386.275967   7794.528790    106.462194
PR16 -23242.259672    932.200016 -10350.760371     -3.469661
PR17   3814.445463 -17042.479312 -18600.175309    324.217419
PR18  -9661.997670  -4807.883917 -23104.845187     35.083908
PR19 -18046.517821   9106.752386 -15561.968960    -92.964542
PR20 -16302.392373  19395.322046   3176.581012   -411.503191
PR21  -3104.995813  16491.326416  19200.255253   -124.026629
PR22  11246.799189   2726.509410  22716.934570     -0.879369
PR23  18756.328672 -14244.468850   9778.132628    305.016969
PR24  15793.238563 -19659.181535  -3852.110135     -1.900295
PR26 -17547.885954  18428.093291  -1577.256843   -395.729592
EOF
